FENGYUN 1C DEB          
1 30025U 99025NA  17345.92259403  .00002096  00000-0  11989-3 0  9997
2 30025  98.3844 161.8977 0192368  14.3843 346.2747 14.99694497585776
